<?xml version="1.0" encoding="UTF-8"?>
<ndm xmlns:xsi="http://www.w3.org/2001/XMLSchema-instance" xsi:noNamespaceSchemaLocation="https://sanaregistry.org/r/ndmxml_unqualified/ndmxml-2.0.0-master-2.0.xsd">
<omm id="CCSDS_OMM_VERS" version="2.0">
<header><CREATION_DATE/><ORIGINATOR/></header><body><segment><metadata><OBJECT_NAME>KUIPER-00095</OBJECT_NAME><OBJECT_ID>2025-171C</OBJECT_ID><CENTER_NAME>EARTH</CENTER_NAME><REF_FRAME>TEME</REF_FRAME><TIME_SYSTEM>UTC</TIME_SYSTEM><MEAN_ELEMENT_THEORY>SGP4</MEAN_ELEMENT_THEORY></metadata><data><meanElements><EPOCH>2025-10-25T11:16:41.869056</EPOCH><MEAN_MOTION>15.37593001</MEAN_MOTION><ECCENTRICITY>.0004798</ECCENTRICITY><INCLINATION>51.8750</INCLINATION><RA_OF_ASC_NODE>43.0054</RA_OF_ASC_NODE><ARG_OF_PERICENTER>48.0936</ARG_OF_PERICENTER><MEAN_ANOMALY>312.0459</MEAN_ANOMALY></meanElements><tleParameters><EPHEMERIS_TYPE>0</EPHEMERIS_TYPE><CLASSIFICATION_TYPE>U</CLASSIFICATION_TYPE><NORAD_CAT_ID>65134</NORAD_CAT_ID><ELEMENT_SET_NO>999</ELEMENT_SET_NO><REV_AT_EPOCH>1277</REV_AT_EPOCH><BSTAR>.12724E-2</BSTAR><MEAN_MOTION_DOT>.476E-3</MEAN_MOTION_DOT><MEAN_MOTION_DDOT>0</MEAN_MOTION_DDOT></tleParameters></data></segment></body></omm>
<omm id="CCSDS_OMM_VERS" version="2.0">
<header><CREATION_DATE/><ORIGINATOR/></header><body><segment><metadata><OBJECT_NAME>KUIPER-00096</OBJECT_NAME><OBJECT_ID>2025-171D</OBJECT_ID><CENTER_NAME>EARTH</CENTER_NAME><REF_FRAME>TEME</REF_FRAME><TIME_SYSTEM>UTC</TIME_SYSTEM><MEAN_ELEMENT_THEORY>SGP4</MEAN_ELEMENT_THEORY></metadata><data><meanElements><EPOCH>2025-10-25T11:32:25.692288</EPOCH><MEAN_MOTION>15.31246412</MEAN_MOTION><ECCENTRICITY>.0005125</ECCENTRICITY><INCLINATION>51.8799</INCLINATION><RA_OF_ASC_NODE>43.0765</RA_OF_ASC_NODE><ARG_OF_PERICENTER>46.7364</ARG_OF_PERICENTER><MEAN_ANOMALY>313.4048</MEAN_ANOMALY></meanElements><tleParameters><EPHEMERIS_TYPE>0</EPHEMERIS_TYPE><CLASSIFICATION_TYPE>U</CLASSIFICATION_TYPE><NORAD_CAT_ID>65135</NORAD_CAT_ID><ELEMENT_SET_NO>999</ELEMENT_SET_NO><REV_AT_EPOCH>1277</REV_AT_EPOCH><BSTAR>-.1039E-2</BSTAR><MEAN_MOTION_DOT>-.32061E-3</MEAN_MOTION_DOT><MEAN_MOTION_DDOT>0</MEAN_MOTION_DDOT></tleParameters></data></segment></body></omm>
<omm id="CCSDS_OMM_VERS" version="2.0">
<header><CREATION_DATE/><ORIGINATOR/></header><body><segment><metadata><OBJECT_NAME>KUIPER-00097</OBJECT_NAME><OBJECT_ID>2025-171E</OBJECT_ID><CENTER_NAME>EARTH</CENTER_NAME><REF_FRAME>TEME</REF_FRAME><TIME_SYSTEM>UTC</TIME_SYSTEM><MEAN_ELEMENT_THEORY>SGP4</MEAN_ELEMENT_THEORY></metadata><data><meanElements><EPOCH>2025-10-25T12:00:02.998944</EPOCH><MEAN_MOTION>15.20742335</MEAN_MOTION><ECCENTRICITY>.0005845</ECCENTRICITY><INCLINATION>51.8887</INCLINATION><RA_OF_ASC_NODE>43.9062</RA_OF_ASC_NODE><ARG_OF_PERICENTER>35.7521</ARG_OF_PERICENTER><MEAN_ANOMALY>300.4667</MEAN_ANOMALY></meanElements><tleParameters><EPHEMERIS_TYPE>0</EPHEMERIS_TYPE><CLASSIFICATION_TYPE>U</CLASSIFICATION_TYPE><NORAD_CAT_ID>65136</NORAD_CAT_ID><ELEMENT_SET_NO>999</ELEMENT_SET_NO><REV_AT_EPOCH>570</REV_AT_EPOCH><BSTAR>-.38044E-1</BSTAR><MEAN_MOTION_DOT>-.786764E-2</MEAN_MOTION_DOT><MEAN_MOTION_DDOT>0</MEAN_MOTION_DDOT></tleParameters></data></segment></body></omm>
<omm id="CCSDS_OMM_VERS" version="2.0">
<header><CREATION_DATE/><ORIGINATOR/></header><body><segment><metadata><OBJECT_NAME>KUIPER-00098</OBJECT_NAME><OBJECT_ID>2025-171F</OBJECT_ID><CENTER_NAME>EARTH</CENTER_NAME><REF_FRAME>TEME</REF_FRAME><TIME_SYSTEM>UTC</TIME_SYSTEM><MEAN_ELEMENT_THEORY>SGP4</MEAN_ELEMENT_THEORY></metadata><data><meanElements><EPOCH>2025-10-25T12:00:02.998944</EPOCH><MEAN_MOTION>15.15907102</MEAN_MOTION><ECCENTRICITY>.0006469</ECCENTRICITY><INCLINATION>51.8825</INCLINATION><RA_OF_ASC_NODE>44.3883</RA_OF_ASC_NODE><ARG_OF_PERICENTER>25.0564</ARG_OF_PERICENTER><MEAN_ANOMALY>118.8210</MEAN_ANOMALY></meanElements><tleParameters><EPHEMERIS_TYPE>0</EPHEMERIS_TYPE><CLASSIFICATION_TYPE>U</CLASSIFICATION_TYPE><NORAD_CAT_ID>65137</NORAD_CAT_ID><ELEMENT_SET_NO>999</ELEMENT_SET_NO><REV_AT_EPOCH>558</REV_AT_EPOCH><BSTAR>-.34464E-1</BSTAR><MEAN_MOTION_DOT>-.622842E-2</MEAN_MOTION_DOT><MEAN_MOTION_DDOT>0</MEAN_MOTION_DDOT></tleParameters></data></segment></body></omm>
<omm id="CCSDS_OMM_VERS" version="2.0">
<header><CREATION_DATE/><ORIGINATOR/></header><body><segment><metadata><OBJECT_NAME>KUIPER-00099</OBJECT_NAME><OBJECT_ID>2025-171G</OBJECT_ID><CENTER_NAME>EARTH</CENTER_NAME><REF_FRAME>TEME</REF_FRAME><TIME_SYSTEM>UTC</TIME_SYSTEM><MEAN_ELEMENT_THEORY>SGP4</MEAN_ELEMENT_THEORY></metadata><data><meanElements><EPOCH>2025-10-25T12:09:48.537792</EPOCH><MEAN_MOTION>15.37611097</MEAN_MOTION><ECCENTRICITY>.0004839</ECCENTRICITY><INCLINATION>51.8782</INCLINATION><RA_OF_ASC_NODE>42.5224</RA_OF_ASC_NODE><ARG_OF_PERICENTER>41.5845</ARG_OF_PERICENTER><MEAN_ANOMALY>318.5509</MEAN_ANOMALY></meanElements><tleParameters><EPHEMERIS_TYPE>0</EPHEMERIS_TYPE><CLASSIFICATION_TYPE>U</CLASSIFICATION_TYPE><NORAD_CAT_ID>65138</NORAD_CAT_ID><ELEMENT_SET_NO>999</ELEMENT_SET_NO><REV_AT_EPOCH>1277</REV_AT_EPOCH><BSTAR>.13441E-2</BSTAR><MEAN_MOTION_DOT>.50353E-3</MEAN_MOTION_DOT><MEAN_MOTION_DDOT>0</MEAN_MOTION_DDOT></tleParameters></data></segment></body></omm>
<omm id="CCSDS_OMM_VERS" version="2.0">
<header><CREATION_DATE/><ORIGINATOR/></header><body><segment><metadata><OBJECT_NAME>KUIPER-00100</OBJECT_NAME><OBJECT_ID>2025-171H</OBJECT_ID><CENTER_NAME>EARTH</CENTER_NAME><REF_FRAME>TEME</REF_FRAME><TIME_SYSTEM>UTC</TIME_SYSTEM><MEAN_ELEMENT_THEORY>SGP4</MEAN_ELEMENT_THEORY></metadata><data><meanElements><EPOCH>2025-10-25T10:51:10.746144</EPOCH><MEAN_MOTION>15.38110580</MEAN_MOTION><ECCENTRICITY>.0005697</ECCENTRICITY><INCLINATION>51.8757</INCLINATION><RA_OF_ASC_NODE>42.8918</RA_OF_ASC_NODE><ARG_OF_PERICENTER>32.3907</ARG_OF_PERICENTER><MEAN_ANOMALY>327.7429</MEAN_ANOMALY></meanElements><tleParameters><EPHEMERIS_TYPE>0</EPHEMERIS_TYPE><CLASSIFICATION_TYPE>U</CLASSIFICATION_TYPE><NORAD_CAT_ID>65139</NORAD_CAT_ID><ELEMENT_SET_NO>999</ELEMENT_SET_NO><REV_AT_EPOCH>1276</REV_AT_EPOCH><BSTAR>.13509E-2</BSTAR><MEAN_MOTION_DOT>.51457E-3</MEAN_MOTION_DOT><MEAN_MOTION_DDOT>0</MEAN_MOTION_DDOT></tleParameters></data></segment></body></omm>
<omm id="CCSDS_OMM_VERS" version="2.0">
<header><CREATION_DATE/><ORIGINATOR/></header><body><segment><metadata><OBJECT_NAME>KUIPER-00102</OBJECT_NAME><OBJECT_ID>2025-171J</OBJECT_ID><CENTER_NAME>EARTH</CENTER_NAME><REF_FRAME>TEME</REF_FRAME><TIME_SYSTEM>UTC</TIME_SYSTEM><MEAN_ELEMENT_THEORY>SGP4</MEAN_ELEMENT_THEORY></metadata><data><meanElements><EPOCH>2025-10-25T11:16:16.521024</EPOCH><MEAN_MOTION>15.37728488</MEAN_MOTION><ECCENTRICITY>.0005379</ECCENTRICITY><INCLINATION>51.8750</INCLINATION><RA_OF_ASC_NODE>43.0002</RA_OF_ASC_NODE><ARG_OF_PERICENTER>42.5517</ARG_OF_PERICENTER><MEAN_ANOMALY>317.5885</MEAN_ANOMALY></meanElements><tleParameters><EPHEMERIS_TYPE>0</EPHEMERIS_TYPE><CLASSIFICATION_TYPE>U</CLASSIFICATION_TYPE><NORAD_CAT_ID>65140</NORAD_CAT_ID><ELEMENT_SET_NO>999</ELEMENT_SET_NO><REV_AT_EPOCH>1276</REV_AT_EPOCH><BSTAR>.12355E-2</BSTAR><MEAN_MOTION_DOT>.46412E-3</MEAN_MOTION_DOT><MEAN_MOTION_DDOT>0</MEAN_MOTION_DDOT></tleParameters></data></segment></body></omm>
<omm id="CCSDS_OMM_VERS" version="2.0">
<header><CREATION_DATE/><ORIGINATOR/></header><body><segment><metadata><OBJECT_NAME>KUIPER-00103</OBJECT_NAME><OBJECT_ID>2025-171K</OBJECT_ID><CENTER_NAME>EARTH</CENTER_NAME><REF_FRAME>TEME</REF_FRAME><TIME_SYSTEM>UTC</TIME_SYSTEM><MEAN_ELEMENT_THEORY>SGP4</MEAN_ELEMENT_THEORY></metadata><data><meanElements><EPOCH>2025-10-25T12:00:02.998944</EPOCH><MEAN_MOTION>14.90872213</MEAN_MOTION><ECCENTRICITY>.000587</ECCENTRICITY><INCLINATION>51.8965</INCLINATION><RA_OF_ASC_NODE>48.7359</RA_OF_ASC_NODE><ARG_OF_PERICENTER>52.7105</ARG_OF_PERICENTER><MEAN_ANOMALY>110.4186</MEAN_ANOMALY></meanElements><tleParameters><EPHEMERIS_TYPE>0</EPHEMERIS_TYPE><CLASSIFICATION_TYPE>U</CLASSIFICATION_TYPE><NORAD_CAT_ID>65141</NORAD_CAT_ID><ELEMENT_SET_NO>999</ELEMENT_SET_NO><REV_AT_EPOCH>266</REV_AT_EPOCH><BSTAR>-.65865E-2</BSTAR><MEAN_MOTION_DOT>-.65223E-3</MEAN_MOTION_DOT><MEAN_MOTION_DDOT>0</MEAN_MOTION_DDOT></tleParameters></data></segment></body></omm>

</ndm>
