KUIPER-00095            
1 65134U 25171C   25298.46992904  .00047600  00000+0  12724-2 0  9998
2 65134  51.8750  43.0054 0004798  48.0936 312.0459 15.37593001 12776
KUIPER-00096            
1 65135U 25171D   25298.48085292 -.00032061  00000+0 -10390-2 0  9998
2 65135  51.8799  43.0765 0005125  46.7364 313.4048 15.31246412 12778
KUIPER-00097            
1 65136U 25171E   25298.50003471 -.00786764  00000+0 -38044-1 0  9992
2 65136  51.8887  43.9062 0005845  35.7521 300.4667 15.20742335  5709
KUIPER-00098            
1 65137U 25171F   25298.50003471 -.00622842  00000+0 -34464-1 0  9991
2 65137  51.8825  44.3883 0006469  25.0564 118.8210 15.15907102  5580
KUIPER-00099            
1 65138U 25171G   25298.50681178  .00050353  00000+0  13441-2 0  9991
2 65138  51.8782  42.5224 0004839  41.5845 318.5509 15.37611097 12774
KUIPER-00100            
1 65139U 25171H   25298.45220771  .00051457  00000+0  13509-2 0  9995
2 65139  51.8757  42.8918 0005697  32.3907 327.7429 15.38110580 12764
KUIPER-00102            
1 65140U 25171J   25298.46963566  .00046412  00000+0  12355-2 0  9997
2 65140  51.8750  43.0002 0005379  42.5517 317.5885 15.37728488 12767
KUIPER-00103            
1 65141U 25171K   25298.50003471 -.00065223  00000+0 -65865-2 0  9990
2 65141  51.8965  48.7359 0005870  52.7105 110.4186 14.90872213  2661
